{"type":"Feature","properties":{},"geometry":{"type":"Polygon","coordinates":[[[-103.52412,19.08562],[-103.52221,19.09286],[-103.51749,19.09834],[-103.52103,19.10252],[-103.52066,19.11263],[-103.52303,19.11418],[-103.5233,19.11629],[-103.51918,19.12409],[-103.51363,19.1306],[-103.51095,19.13189],[-103.51356,19.1384],[-103.51141,19.1468],[-103.50942,19.14892],[-103.50854,19.15733],[-103.50494,19.15903],[-103.50195,19.1628],[-103.50234,19.17035],[-103.49878,19.1728],[-103.49734,19.17651],[-103.49863,19.18463],[-103.50113,19.18996],[-103.50546,19.19672],[-103.51076,19.20068],[-103.51367,19.21024],[-103.51377,19.21173],[-103.51061,19.21342],[-103.5136,19.21652],[-103.51334,19.21876],[-103.50602,19.22735],[-103.50691,19.23067],[-103.50603,19.23612],[-103.50845,19.23847],[-103.50956,19.24204],[-103.50593,19.25415],[-103.50739,19.25839],[-103.50707,19.26567],[-103.50889,19.26859],[-103.50691,19.27866],[-103.50723,19.29091],[-103.50893,19.29457],[-103.50531,19.29872],[-103.50194,19.29889],[-103.50026,19.30403],[-103.50113,19.30646],[-103.4998,19.30833],[-103.49474,19.31],[-103.49305,19.30786],[-103.49039,19.31196],[-103.49126,19.31547],[-103.4969,19.31872],[-103.49679,19.31971],[-103.49499,19.32195],[-103.49161,19.32279],[-103.48947,19.32631],[-103.48761,19.32669],[-103.48854,19.33231],[-103.48692,19.33864],[-103.49289,19.34415],[-103.49275,19.34622],[-103.49777,19.34718],[-103.49901,19.34489],[-103.50088,19.34523],[-103.50706,19.34978],[-103.50885,19.34914],[-103.51093,19.35176],[-103.51489,19.35236],[-103.51615,19.35491],[-103.51877,19.35458],[-103.51775,19.35637],[-103.5223,19.35743],[-103.52488,19.3629],[-103.52532,19.3686],[-103.52683,19.3685],[-103.52699,19.37152],[-103.53045,19.37681],[-103.53698,19.3816],[-103.53842,19.38816],[-103.54199,19.38984],[-103.5448,19.39452],[-103.55168,19.39906],[-103.55252,19.40124],[-103.55446,19.40195],[-103.5549,19.4046],[-103.55927,19.40842],[-103.56397,19.40778],[-103.56576,19.4063],[-103.56931,19.40662],[-103.57469,19.41192],[-103.57567,19.41543],[-103.57761,19.41656],[-103.5767,19.42187],[-103.5795,19.4256],[-103.57885,19.42888],[-103.58123,19.43633],[-103.58657,19.43886],[-103.58747,19.44415],[-103.59411,19.45241],[-103.59829,19.45545],[-103.60213,19.46272],[-103.60848,19.46673],[-103.60958,19.47014],[-103.61233,19.47048],[-103.61579,19.47581],[-103.61665,19.47534],[-103.61302,19.48537],[-103.61348,19.48863],[-103.61593,19.4922],[-103.61515,19.49486],[-103.61636,19.50883],[-103.63137,19.50205],[-103.6409,19.49559],[-103.64502,19.49116],[-103.65315,19.48672],[-103.66176,19.48505],[-103.66286,19.48332],[-103.66331,19.47546],[-103.65934,19.47087],[-103.65928,19.46798],[-103.66405,19.46826],[-103.6732,19.47697],[-103.69177,19.4853],[-103.69635,19.48568],[-103.69846,19.48447],[-103.69951,19.48056],[-103.70606,19.47416],[-103.70751,19.47017],[-103.71612,19.46607],[-103.71665,19.45406],[-103.72477,19.45094],[-103.73436,19.44335],[-103.73901,19.44279],[-103.74381,19.44467],[-103.75049,19.44447],[-103.77335,19.43126],[-103.77806,19.43147],[-103.78137,19.42944],[-103.78876,19.42946],[-103.79363,19.42701],[-103.79821,19.42188],[-103.80344,19.42083],[-103.80924,19.41523],[-103.81801,19.41232],[-103.81911,19.40901],[-103.82085,19.40884],[-103.82502,19.40178],[-103.82724,19.40181],[-103.82753,19.40347],[-103.83229,19.40317],[-103.83573,19.40498],[-103.84207,19.41333],[-103.84399,19.41382],[-103.86434,19.4134],[-103.86667,19.41236],[-103.86708,19.41563],[-103.86563,19.41745],[-103.86837,19.42159],[-103.86662,19.42263],[-103.86814,19.42387],[-103.86669,19.42607],[-103.86914,19.43848],[-103.87066,19.44026],[-103.87393,19.44117],[-103.87473,19.43934],[-103.87793,19.44078],[-103.87961,19.43655],[-103.8856,19.436],[-103.88618,19.43467],[-103.88833,19.43442],[-103.89246,19.43763],[-103.89897,19.43695],[-103.8977,19.44035],[-103.8952,19.4426],[-103.89777,19.44553],[-103.90248,19.44622],[-103.90597,19.44832],[-103.90952,19.45299],[-103.914,19.45256],[-103.91715,19.45438],[-103.92116,19.45706],[-103.92356,19.46223],[-103.92867,19.46085],[-103.93222,19.46357],[-103.93292,19.46059],[-103.93065,19.45836],[-103.93488,19.45396],[-103.94077,19.45866],[-103.94397,19.46308],[-103.94398,19.46623],[-103.94729,19.46564],[-103.94857,19.46679],[-103.95206,19.46409],[-103.95556,19.46714],[-103.9573,19.46532],[-103.96492,19.4672],[-103.9651,19.46956],[-103.96133,19.47379],[-103.96575,19.47506],[-103.97034,19.47029],[-103.97219,19.46569],[-103.97095,19.45869],[-103.97176,19.45604],[-103.98113,19.45692],[-103.98519,19.45339],[-103.9855,19.46378],[-103.98854,19.46919],[-104.01149,19.47803],[-104.02602,19.47826],[-104.02662,19.48431],[-104.02807,19.48534],[-104.02784,19.48766],[-104.03041,19.49138],[-104.03182,19.49667],[-104.03932,19.49491],[-104.04077,19.492],[-104.04379,19.49083],[-104.04495,19.48772],[-104.05058,19.48232],[-104.05191,19.48037],[-104.05202,19.47631],[-104.05026,19.4723],[-104.05067,19.47002],[-104.05358,19.47299],[-104.05655,19.47319],[-104.05778,19.47645],[-104.06127,19.47665],[-104.06951,19.48009],[-104.07455,19.48718],[-104.09045,19.47442],[-104.09205,19.45052],[-104.09827,19.4188],[-104.10835,19.39364],[-104.12521,19.37743],[-104.13738,19.3533],[-104.15288,19.3331],[-104.18053,19.32759],[-104.19074,19.32036],[-104.20404,19.31776],[-104.2099,19.31482],[-104.23579,19.30791],[-104.24109,19.30834],[-104.24738,19.3123],[-104.25598,19.31001],[-104.26105,19.3125],[-104.26213,19.30834],[-104.26764,19.30512],[-104.26989,19.30227],[-104.27721,19.30113],[-104.28066,19.30359],[-104.28268,19.30165],[-104.28261,19.29803],[-104.28411,19.29707],[-104.28655,19.29727],[-104.28726,19.29982],[-104.29129,19.30243],[-104.29676,19.30332],[-104.29861,19.30195],[-104.30027,19.29598],[-104.3056,19.29395],[-104.31053,19.29014],[-104.31125,19.28426],[-104.31448,19.27989],[-104.3228,19.28105],[-104.32415,19.28359],[-104.33115,19.28825],[-104.33637,19.28813],[-104.34345,19.29072],[-104.3526,19.2805],[-104.35755,19.27276],[-104.36373,19.26956],[-104.36522,19.27046],[-104.36451,19.27597],[-104.37513,19.28268],[-104.38233,19.27617],[-104.38253,19.27192],[-104.3846,19.26912],[-104.39592,19.26803],[-104.40199,19.26369],[-104.40382,19.26763],[-104.40199,19.27291],[-104.4031,19.27542],[-104.39821,19.28312],[-104.40102,19.28626],[-104.40669,19.28339],[-104.41331,19.28225],[-104.41457,19.27921],[-104.41833,19.27716],[-104.4221,19.27705],[-104.42421,19.27872],[-104.4304,19.27602],[-104.43749,19.27609],[-104.43877,19.27512],[-104.43652,19.27162],[-104.43887,19.26405],[-104.45171,19.25949],[-104.4569,19.26022],[-104.45967,19.25602],[-104.45673,19.25016],[-104.46093,19.24748],[-104.46421,19.24893],[-104.46805,19.24657],[-104.46347,19.23746],[-104.46532,19.23316],[-104.46782,19.2317],[-104.47209,19.23287],[-104.4752,19.23856],[-104.47681,19.23917],[-104.48006,19.23825],[-104.48431,19.2312],[-104.48819,19.23084],[-104.4902,19.23191],[-104.49146,19.23765],[-104.48972,19.24868],[-104.49561,19.25433],[-104.50105,19.25348],[-104.50895,19.24569],[-104.51286,19.24765],[-104.51869,19.25375],[-104.52344,19.25315],[-104.52639,19.25846],[-104.53186,19.26057],[-104.54007,19.25037],[-104.54963,19.24351],[-104.54998,19.24112],[-104.55729,19.23374],[-104.55809,19.22687],[-104.56017,19.2232],[-104.56481,19.22139],[-104.56734,19.21647],[-104.57331,19.21191],[-104.57358,19.20942],[-104.56933,19.20591],[-104.56891,19.20392],[-104.57098,19.19884],[-104.57068,19.19552],[-104.57391,19.19177],[-104.57522,19.18366],[-104.577,19.18021],[-104.58065,19.17794],[-104.58332,19.1778],[-104.58642,19.18363],[-104.59021,19.18644],[-104.59346,19.18529],[-104.59617,19.18216],[-104.60047,19.18247],[-104.60127,19.1791],[-104.59985,19.17272],[-104.59621,19.16531],[-104.58878,19.16419],[-104.58673,19.16192],[-104.58728,19.15519],[-104.5918,19.15192],[-104.60057,19.15162],[-104.61332,19.15637],[-104.61187,19.16047],[-104.61641,19.16194],[-104.61928,19.16832],[-104.61674,19.17066],[-104.61594,19.17444],[-104.61724,19.17838],[-104.61946,19.18069],[-104.62636,19.17803],[-104.62959,19.17332],[-104.63651,19.17577],[-104.64203,19.17594],[-104.64504,19.18009],[-104.65286,19.18363],[-104.66545,19.18474],[-104.6704,19.18692],[-104.67532,19.1866],[-104.68136,19.19502],[-104.68849,19.19939],[-104.69098,19.19809],[-104.69014,19.19608],[-104.6913,19.18982],[-104.69715,19.1889],[-104.70131,19.18313],[-104.69805,19.17981],[-104.69773,19.17723],[-104.69593,19.1785],[-104.69322,19.17767],[-104.69394,19.17552],[-104.69308,19.17468],[-104.68957,19.17813],[-104.68045,19.17731],[-104.60401,19.15162],[-104.56905,19.14637],[-104.51884,19.13398],[-104.49223,19.12595],[-104.47253,19.1163],[-104.47149,19.1155],[-104.47209,19.11418],[-104.46887,19.1126],[-104.46849,19.11093],[-104.46385,19.11241],[-104.45221,19.10951],[-104.45088,19.10426],[-104.453,19.10096],[-104.45074,19.10143],[-104.44857,19.09954],[-104.45042,19.09462],[-104.44695,19.09449],[-104.44645,19.09332],[-104.44907,19.09111],[-104.44595,19.09153],[-104.44187,19.0847],[-104.43909,19.08483],[-104.43898,19.0896],[-104.43764,19.09054],[-104.44007,19.09494],[-104.43968,19.09855],[-104.43599,19.09804],[-104.43481,19.09483],[-104.43331,19.09501],[-104.43148,19.09291],[-104.42929,19.09305],[-104.42936,19.09209],[-104.42745,19.09693],[-104.42425,19.09884],[-104.42394,19.10071],[-104.42074,19.10216],[-104.41809,19.10628],[-104.41242,19.10699],[-104.41144,19.10685],[-104.41147,19.10469],[-104.40789,19.10381],[-104.40833,19.10141],[-104.40533,19.10104],[-104.40497,19.09725],[-104.4026,19.09743],[-104.39947,19.09356],[-104.40043,19.09059],[-104.39825,19.08939],[-104.39849,19.08807],[-104.39722,19.08822],[-104.39639,19.08546],[-104.39542,19.08882],[-104.39633,19.09032],[-104.39411,19.09208],[-104.39309,19.09522],[-104.39047,19.09693],[-104.39279,19.10128],[-104.39883,19.10449],[-104.39874,19.10697],[-104.39704,19.11115],[-104.39281,19.11531],[-104.38287,19.11968],[-104.37367,19.12035],[-104.35699,19.11616],[-104.35273,19.11346],[-104.35087,19.11056],[-104.35223,19.10878],[-104.35119,19.10781],[-104.35402,19.10441],[-104.35134,19.10539],[-104.34966,19.10353],[-104.3507,19.10065],[-104.35612,19.09705],[-104.35375,19.09446],[-104.355,19.09249],[-104.35421,19.09146],[-104.3502,19.09085],[-104.34878,19.09674],[-104.34419,19.09844],[-104.34439,19.09953],[-104.34608,19.09852],[-104.347,19.09968],[-104.34503,19.09955],[-104.34695,19.10142],[-104.34368,19.10387],[-104.34235,19.10285],[-104.34016,19.10407],[-104.33721,19.10336],[-104.32508,19.09784],[-104.31564,19.0911],[-104.30694,19.08036],[-104.30414,19.07411],[-104.30272,19.06628],[-104.30287,19.06394],[-104.3051,19.06284],[-104.2979,19.06472],[-104.29572,19.06807],[-104.29456,19.06736],[-104.2954,19.06845],[-104.29398,19.07018],[-104.29619,19.06835],[-104.29876,19.07475],[-104.29999,19.075],[-104.30479,19.08396],[-104.30294,19.08229],[-104.30328,19.0857],[-104.30149,19.08721],[-104.29777,19.08224],[-104.29464,19.0803],[-104.29185,19.08115],[-104.29062,19.07812],[-104.29236,19.06412],[-104.29445,19.06415],[-104.29468,19.05869],[-104.2985,19.05766],[-104.29999,19.06184],[-104.30447,19.06085],[-104.30446,19.059],[-104.31086,19.05422],[-104.31315,19.05436],[-104.31368,19.05556],[-104.31459,19.05453],[-104.31443,19.05711],[-104.31528,19.05494],[-104.31807,19.0559],[-104.31671,19.05845],[-104.31814,19.05711],[-104.31874,19.05806],[-104.31497,19.0625],[-104.33017,19.05069],[-104.32981,19.04801],[-104.33215,19.04554],[-104.33057,19.04128],[-104.3307,19.03451],[-104.33308,19.03313],[-104.333,19.02963],[-104.33545,19.02856],[-104.33394,19.02521],[-104.33653,19.02138],[-104.33421,19.01889],[-104.33271,19.01896],[-104.33253,19.01739],[-104.32937,19.01661],[-104.3278,19.01917],[-104.31881,19.01917],[-104.29479,19.01321],[-104.26346,19.00124],[-104.21759,18.98584],[-104.14975,18.95918],[-104.10447,18.93767],[-104.0814,18.92443],[-104.05345,18.90623],[-104.00607,18.88499],[-104.00026,18.87912],[-103.99111,18.87402],[-103.98735,18.87261],[-103.98358,18.87285],[-103.97756,18.86772],[-103.97092,18.86458],[-103.94812,18.84213],[-103.89177,18.80914],[-103.83749,18.77362],[-103.83609,18.77527],[-103.8353,18.77212],[-103.81309,18.75715],[-103.77539,18.72525],[-103.74416,18.69447],[-103.7407,18.68995],[-103.7404,18.68477],[-103.73803,18.68594],[-103.73903,18.68915],[-103.73771,18.68839],[-103.73645,18.69173],[-103.73383,18.69299],[-103.73863,18.69721],[-103.73678,18.70098],[-103.72681,18.70213],[-103.72035,18.71344],[-103.71695,18.71629],[-103.715,18.72355],[-103.70929,18.72566],[-103.707,18.72849],[-103.69987,18.72894],[-103.69875,18.73064],[-103.69993,18.73292],[-103.70335,18.73293],[-103.70666,18.73561],[-103.70259,18.74537],[-103.70072,18.75654],[-103.69872,18.75343],[-103.69461,18.75327],[-103.69274,18.75642],[-103.69047,18.75603],[-103.68463,18.75807],[-103.68245,18.7628],[-103.68147,18.7704],[-103.67582,18.77573],[-103.66742,18.77966],[-103.66128,18.77702],[-103.65417,18.77832],[-103.64781,18.78145],[-103.64415,18.78054],[-103.62703,18.79294],[-103.62814,18.79012],[-103.6233,18.79651],[-103.61913,18.80449],[-103.61857,18.80882],[-103.62164,18.81661],[-103.62194,18.8226],[-103.62526,18.82726],[-103.62553,18.82962],[-103.62368,18.83691],[-103.62116,18.83828],[-103.61768,18.83721],[-103.61655,18.83998],[-103.62184,18.84796],[-103.62722,18.85133],[-103.63108,18.85685],[-103.63612,18.85956],[-103.64158,18.86883],[-103.63306,18.87866],[-103.63003,18.88564],[-103.61984,18.89338],[-103.61056,18.88885],[-103.60665,18.88345],[-103.60282,18.88121],[-103.59686,18.88431],[-103.59572,18.88185],[-103.58901,18.87597],[-103.58971,18.86838],[-103.58753,18.86558],[-103.58449,18.8658],[-103.58391,18.87385],[-103.58199,18.87545],[-103.57794,18.87488],[-103.57731,18.87318],[-103.57328,18.87071],[-103.57211,18.88008],[-103.56866,18.88364],[-103.569,18.89253],[-103.56313,18.89314],[-103.5594,18.89629],[-103.55905,18.90437],[-103.55776,18.90709],[-103.55372,18.90536],[-103.54994,18.9078],[-103.54222,18.90991],[-103.53369,18.90496],[-103.53079,18.90641],[-103.52825,18.91291],[-103.5334,18.92035],[-103.53387,18.92733],[-103.52732,18.92789],[-103.52397,18.92695],[-103.52071,18.92935],[-103.51982,18.93231],[-103.51407,18.93453],[-103.51496,18.93887],[-103.5226,18.94753],[-103.51887,18.95047],[-103.51262,18.94925],[-103.51062,18.94609],[-103.50591,18.94836],[-103.50277,18.95741],[-103.50455,18.95974],[-103.50797,18.95977],[-103.50904,18.96337],[-103.4991,18.96097],[-103.49449,18.9582],[-103.49002,18.95906],[-103.48872,18.96272],[-103.48891,18.96743],[-103.49012,18.96909],[-103.49451,18.97017],[-103.49576,18.97245],[-103.49014,18.98102],[-103.49251,18.98777],[-103.491,18.99643],[-103.49299,19.00061],[-103.49375,19.00681],[-103.49661,19.01134],[-103.49858,19.01223],[-103.49415,19.01516],[-103.49333,19.02295],[-103.48908,19.02592],[-103.48871,19.02844],[-103.49113,19.03028],[-103.49088,19.03275],[-103.49665,19.0352],[-103.49688,19.04263],[-103.50129,19.04891],[-103.50587,19.04966],[-103.5097,19.05802],[-103.51726,19.06132],[-103.5227,19.06679],[-103.52202,19.07364],[-103.52285,19.07683],[-103.52588,19.07959],[-103.52412,19.08562]]]}}